NORAD_CAT_ID,OBJECT_NAME,OBJECT_TYPE,EPOCH,MEAN_MOTION,ECCENTRICITY,INCLINATION,RA_OF_ASC_NODE,ARG_OF_PERICENTER,MEAN_ANOMALY,BSTAR,MEAN_MOTION_DOT,MEAN_MOTION_DDOT,TLE_LINE0,TLE_LINE1,TLE_LINE2,SEMIMAJOR_AXIS,PERIOD,APOGEE,PERIGEE,DECAYED
52340.0,STARLINK-3818,PAYLOAD,2022-05-25 14:00:01,15.73261021,8.99e-05,53.2142,309.0993,68.5924,65.0272,-0.00038087,-0.00053868,0.0,0 STARLINK-3818,1 52340U 22045K   22145.58334491 -.00053868  00000-0 -38087-3 0  9999,2 52340  53.2142 309.0993 0000899  68.5924  65.0272 15.73261021  1300,6727.721,91.53,350.191,348.981,0.0
52340.0,STARLINK-3818,PAYLOAD,2022-05-25 19:32:00,15.73214915,0.0001258,53.2157,307.9562,49.6666,310.4464,-2.5185e-05,-4.155e-05,0.0,0 STARLINK-3818,1 52340U 22045K   22145.81389031 -.00004155  00000-0 -25185-4 0  9996,2 52340  53.2157 307.9562 0001258  49.6666 310.4464 15.73214915  6628,6727.853,91.532,350.564,348.871,0.0
52340.0,STARLINK-3818,PAYLOAD,2022-05-26 06:00:00,15.73216659,0.0001021,53.214,305.7992,68.3616,243.1891,4.7012e-06,4.1e-07,0.0,0 STARLINK-3818,1 52340U 22045K   22146.25001157  .00000041  00000-0  47012-5 0  9997,2 52340  53.2140 305.7992 0001021  68.3616 243.1891 15.73216659  6683,6727.848000000001,91.532,350.4,349.026,0.0
52340.0,STARLINK-3818,PAYLOAD,2022-05-26 14:00:01,15.73237464,0.0001148,53.2143,304.1501,64.1325,336.3526,-0.00065435,-0.00091605,0.0,0 STARLINK-3818,1 52340U 22045K   22146.58334491 -.00091605  00000-0 -65435-3 0  9998,2 52340  53.2143 304.1501 0001148  64.1325 336.3526 15.73237464  1307,6727.788000000001,91.531,350.426,348.881,0.0
52340.0,STARLINK-3818,PAYLOAD,2022-05-26 19:55:40,15.73214869,8.88e-05,53.2155,302.9278,72.5964,287.5153,1.8229e-05,1.941e-05,0.0,0 STARLINK-3818,1 52340U 22045K   22146.83033098  .00001941  00000-0  18229-4 0  9997,2 52340  53.2155 302.9278 0000888  72.5964 287.5153 15.73214869  6783,6727.853,91.532,350.315,349.12,0.0
52340.0,STARLINK-3818,PAYLOAD,2022-05-27 02:00:01,15.73152574,0.0001448,53.2139,301.6758,62.7485,291.1217,-1.9473e-05,-3.346e-05,0.0,0 STARLINK-3818,1 52340U 22045K   22147.08334491 -.00003346  00000-0 -19473-4 0  9991,2 52340  53.2139 301.6758 0001448  62.7485 291.1217 15.73152574  6816,6728.03,91.536,350.87,348.921,0.0
52340.0,STARLINK-3818,PAYLOAD,2022-05-27 14:13:28,15.73184086,0.0001740999999999,53.2156,299.1565,61.9235,298.1961,-4.221e-05,-6.536e-05,0.0,0 STARLINK-3818,1 52340U 22045K   22147.59268550 -.00006536  00000-0 -42210-4 0  9998,2 52340  53.2156 299.1565 0001741  61.9235 298.1961 15.73184086  6908,6727.941,91.534,350.977,348.634,0.0
52340.0,STARLINK-3818,PAYLOAD,2022-05-27 16:00:00,15.73229283,0.0001396999999999,53.2138,298.7898,57.7124,1.7027,-0.00032418,-0.00045926,0.0,0 STARLINK-3818,1 52340U 22045K   22147.66667824 -.00045926  00000-0 -32418-3 0  9997,2 52340  53.2138 298.7898 0001397  57.7124   1.7027 15.73229283  6910,6727.812,91.531,350.617,348.737,0.0
52340.0,STARLINK-3818,PAYLOAD,2022-05-27 20:19:21,15.73240012,0.0002614,53.2155,297.8974,49.8053,310.3195,9.4304e-05,0.00012657,0.0,0 STARLINK-3818,1 52340U 22045K   22147.84678208  .00012657  00000-0  94304-4 0  9991,2 52340  53.2155 297.8974 0002614  49.8053 310.3195 15.73240012  6941,6727.781,91.531,351.405,347.88699999999994,0.0
52340.0,STARLINK-3818,PAYLOAD,2022-05-28 06:00:02,15.73190864,0.0001074,53.2139,295.9011,53.1706,71.97399999999998,0.00078428,0.00110868,0.0,0 STARLINK-3818,1 52340U 22045K   22148.25002315  .00110868  00000-0  78428-3 0  9998,2 52340  53.2139 295.9011 0001074  53.1706  71.9740 15.73190864  7009,6727.920999999999,91.534,350.509,349.064,0.0
52340.0,STARLINK-3818,PAYLOAD,2022-05-28 14:00:01,15.73308005,0.0001193,53.2143,294.2525,47.9869,166.0524,-0.0003435,-0.00048772,0.0,0 STARLINK-3818,1 52340U 22045K   22148.58334491 -.00048772  00000-0 -34350-3 0  9999,2 52340  53.2143 294.2525 0001193  47.9869 166.0524 15.73308005  1300,6727.587,91.527,350.255,348.65,0.0
52340.0,STARLINK-3818,PAYLOAD,2022-05-28 19:11:32,15.73256461,0.0001106,53.2147,293.181,49.2963,310.8153,0.00012334,0.00016766,0.0,0 STARLINK-3818,1 52340U 22045K   22148.79968526  .00016766  00000-0  12334-3 0  9998,2 52340  53.2147 293.1810 0001106  49.2963 310.8153 15.73256461  7090,6727.734,91.53,350.343,348.855,0.0
52340.0,STARLINK-3818,PAYLOAD,2022-05-29 06:00:02,15.73140564,0.0001371,53.2142,290.9517,54.6105,337.5308,0.00037753,0.00052561,0.0,0 STARLINK-3818,1 52340U 22045K   22149.25002315  .00052561  00000-0  37753-3 0  9990,2 52340  53.2142 290.9517 0001371  54.6105 337.5308 15.73140564  7168,6728.065,91.537,350.852,349.00699999999995,0.0
52340.0,STARLINK-3818,PAYLOAD,2022-05-29 13:29:19,15.73205517,0.0001182,53.2148,289.408,46.6884,313.4235,-5.1202e-06,-1.338e-05,0.0,0 STARLINK-3818,1 52340U 22045K   22149.56202857 -.00001338  00000-0 -51202-5 0  9992,2 52340  53.2148 289.4080 0001182  46.6884 313.4235 15.73205517  7215,6727.879,91.533,350.54,348.949,0.0
52340.0,STARLINK-3818,PAYLOAD,2022-05-29 20:00:01,15.73092486,0.0001341999999999,53.2139,288.0675,32.3076,65.347,0.00042656,0.00059394,0.0,0 STARLINK-3818,1 52340U 22045K   22149.83334491  .00059394  00000-0  42656-3 0  9996,2 52340  53.2139 288.0675 0001342  32.3076  65.3470 15.73092486  7250,6728.2019999999975,91.539,350.97,349.164,0.0
52340.0,STARLINK-3818,PAYLOAD,2022-05-29 21:06:43,15.73192457,0.0001318,53.2148,287.8366,44.1296,315.9829,-5.620100000000001e-05,-8.497e-05,0.0,0 STARLINK-3818,1 52340U 22045K   22149.87967132 -.00008497  00000-0 -56201-4 0  9996,2 52340  53.2148 287.8366 0001318  44.1296 315.9829 15.73192457  7264,6727.917,91.534,350.668,348.895,0.0
52340.0,STARLINK-3818,PAYLOAD,2022-05-30 12:21:33,15.73145187,0.0001504,53.2147,284.6927,26.4035,333.7062,-0.00014966,-0.00021521,0.0,0 STARLINK-3818,1 52340U 22045K   22150.51497636 -.00021521  00000-0 -14966-3 0  9990,2 52340  53.2147 284.6927 0001504  26.4035 333.7062 15.73145187  7368,6728.051,91.536,350.92800000000005,348.905,0.0
52340.0,STARLINK-3818,PAYLOAD,2022-05-30 14:00:01,15.73181333,0.0001326,53.2145,284.3553,31.6478,355.8899,0.0001056,0.00014214,0.0,0 STARLINK-3818,1 52340U 22045K   22150.58334491  .00014214  00000-0  10560-3 0  9991,2 52340  53.2145 284.3553 0001326  31.6478 355.8899 15.73181333  1303,6727.948,91.534,350.706,348.921,0.0
52340.0,STARLINK-3818,PAYLOAD,2022-05-30 19:58:57,15.7319973,0.0001591,53.2149,283.1207,29.9469,330.1642,-1.9798e-05,-3.398e-05,0.0,0 STARLINK-3818,1 52340U 22045K   22150.83260533 -.00003398  00000-0 -19798-4 0  9990,2 52340  53.2149 283.1207 0001591  29.9469 330.1642 15.73199730  7414,6727.896,91.533,350.831,348.691,0.0
52340.0,STARLINK-3818,PAYLOAD,2022-05-31 06:00:02,15.73212274,0.0001284999999999,53.2142,281.0548,31.6174,173.8396,0.00058647,0.00082543,0.0,0 STARLINK-3818,1 52340U 22045K   22151.25002315  .00082543  00000-0  58647-3 0  9991,2 52340  53.2142 281.0548 0001285  31.6174 173.8396 15.73212274  1304,6727.86,91.532,350.59,348.861,0.0
52340.0,STARLINK-3818,PAYLOAD,2022-05-31 12:45:13,15.73212899,0.0001478,53.2149,279.6621,43.599,316.5147,6.5273e-05,8.555e-05,0.0,0 STARLINK-3818,1 52340U 22045K   22151.53141060  .00008555  00000-0  65273-4 0  9998,2 52340  53.2149 279.6621 0001478  43.5990 316.5147 15.73212899  7521,6727.858,91.532,350.718,348.72900000000016,0.0
52340.0,STARLINK-3818,PAYLOAD,2022-05-31 22:00:00,15.7325907,0.0001763,53.2136,277.7577,32.7706,350.5667,-0.00013222,-0.00019183,0.0,0 STARLINK-3818,1 52340U 22045K   22151.91667824 -.00019183  00000-0 -13222-3 0  9998,2 52340  53.2136 277.7577 0001763  32.7706 350.5667 15.73259070  1305,6727.727,91.53,350.778,348.406,0.0
52340.0,STARLINK-3818,PAYLOAD,2022-06-01 14:00:01,15.73228536,0.0001829,53.2142,274.4583,36.9644,164.3322,-0.00039103,-0.00055211,0.0,0 STARLINK-3818,1 52340U 22045K   22152.58334491 -.00055211  00000-0 -39103-3 0  9991,2 52340  53.2142 274.4583 0001829  36.9644 164.3322 15.73228536  7682,6727.814,91.532,350.909,348.4480000000001,0.0
52340.0,STARLINK-3818,PAYLOAD,2022-06-01 20:00:01,15.73194158,0.0001916,53.2139,273.2217,33.3124,144.6874,-0.0001904,-0.00027251,0.0,0 STARLINK-3818,1 52340U 22045K   22152.83334491 -.00027251  00000-0 -19040-3 0  9990,2 52340  53.2139 273.2217 0001916  33.3124 144.6874 15.73194158  1308,6727.9119999999975,91.534,351.066,348.48800000000006,0.0
52340.0,STARLINK-3818,PAYLOAD,2022-06-02 18:07:02,15.73203354,0.0001475,53.2158,268.6612,97.865,262.2537,-4.0915e-05,-6.359e-05,0.0,0 STARLINK-3818,1 52340U 22045K   22153.75488490 -.00006359  00000-0 -40915-4 0  9993,2 52340  53.2158 268.6612 0001475  97.8650 262.2537 15.73203354  7875,6727.886,91.533,350.74300000000005,348.7580000000001,0.0
52340.0,STARLINK-3818,PAYLOAD,2022-06-03 13:56:16,15.73201891,0.0001818,53.2148,264.5726,33.7093,326.4042,-9.4824e-06,-1.951e-05,0.0,0 STARLINK-3818,1 52340U 22045K   22154.58075017 -.00001951  00000-0 -94824-5 0  9994,2 52340  53.2148 264.5726 0001818  33.7093 326.4042 15.73201891  8000,6727.89,91.533,350.978,348.532,0.0
52340.0,STARLINK-3818,PAYLOAD,2022-06-03 18:30:42,15.73216437,0.0001353,53.2143,263.6285,39.1483,320.9635,5.1111e-06,9.8e-07,0.0,0 STARLINK-3818,1 52340U 22045K   22154.77132112  .00000098  00000-0  51111-5 0  9996,2 52340  53.2143 263.6285 0001353  39.1483 320.9635 15.73216437  8034,6727.848000000001,91.532,350.624,348.80300000000005,0.0
52340.0,STARLINK-3818,PAYLOAD,2022-06-04 11:16:59,15.7320434,0.0001764999999999,53.2149,260.1702,37.5512,322.5631,2.8034e-05,3.316e-05,0.0,0 STARLINK-3818,1 52340U 22045K   22155.47013127  .00003316  00000-0  28034-4 0  9991,2 52340  53.2149 260.1702 0001765  37.5512 322.5631 15.73204340  8144,6727.8830000000025,91.533,350.935,348.56,0.0
52340.0,STARLINK-3818,PAYLOAD,2022-06-05 22:00:00,15.73245781,0.000218,53.2144,253.0138,24.7897,252.7013,-0.00073886,-0.00103267,0.0,0 STARLINK-3818,1 52340U 22045K   22156.91667824 -.00103267  00000-0 -73886-3 0  9992,2 52340  53.2144 253.0138 0002180  24.7897 252.7013 15.73245781  8365,6727.765,91.531,351.096,348.163,0.0
